{
    "links": {
        "self": "http://www.neowsapp.com/rest/v1/neo/3758251?api_key=iIulBulltgU6a56xZRHN4H3l9WmuAYTsLGpBGhQ2"
    },
    "id": "3758251",
    "neo_reference_id": "3758251",
    "name": "(2016 QQ44)",
    "designation": "2016 QQ44",
    "nasa_jpl_url": "http://ssd.jpl.nasa.gov/sbdb.cgi?sstr=3758251",
    "absolute_magnitude_h": 25.5,
    "estimated_diameter": {
        "kilometers": {
            "estimated_diameter_min": 0.0211132445,
            "estimated_diameter_max": 0.0472106499
        },
        "meters": {
            "estimated_diameter_min": 21.113244479,
            "estimated_diameter_max": 47.2106498806
        },
        "miles": {
            "estimated_diameter_min": 0.0131191578,
            "estimated_diameter_max": 0.0293353287
        },
        "feet": {
            "estimated_diameter_min": 69.2691770164,
            "estimated_diameter_max": 154.8905885541
        }
    },
    "is_potentially_hazardous_asteroid": false,
    "close_approach_data": [
        {
            "close_approach_date": "2016-09-03",
            "close_approach_date_full": "2016-Sep-03 16:47",
            "epoch_date_close_approach": 1472921220000,
            "relative_velocity": {
                "kilometers_per_second": "7.1157661006",
                "kilometers_per_hour": "25616.7579621044",
                "miles_per_hour": "15917.2571903976"
            },
            "miss_distance": {
                "astronomical": "0.0744273636",
                "lunar": "28.9522444404",
                "kilometers": "11134175.064275532",
                "miles": "6918455.5718930616"
            },
            "orbiting_body": "Earth"
        }
    ],
    "orbital_data": {
        "orbit_id": "6",
        "orbit_determination_date": "2017-04-06 08:24:20",
        "first_observation_date": "2016-08-30",
        "last_observation_date": "2016-10-11",
        "data_arc_in_days": 42,
        "observations_used": 31,
        "orbit_uncertainty": "7",
        "minimum_orbit_intersection": ".064355",
        "jupiter_tisserand_invariant": "3.265",
        "epoch_osculation": "2459000.5",
        "eccentricity": ".5633122075715363",
        "semi_major_axis": "2.437474187940857",
        "inclination": "1.345457911027762",
        "ascending_node_longitude": "278.1927745457315",
        "orbital_period": "1389.979723276163",
        "perihelion_distance": "1.064415222233255",
        "perihelion_argument": "77.25421607413593",
        "aphelion_distance": "3.810533153648458",
        "perihelion_time": "2459034.783829565250",
        "mean_anomaly": "351.1206052600539",
        "mean_motion": ".2589965838864794",
        "equinox": "J2000",
        "orbit_class": {
            "orbit_class_type": "AMO",
            "orbit_class_description": "Near-Earth asteroid orbits similar to that of 1221 Amor",
            "orbit_class_range": "1.017 AU < q (perihelion) < 1.3 AU"
        }
    },
    "is_sentry_object": false
}